NORAD_CAT_ID,OBJECT_NAME,OBJECT_TYPE,EPOCH,MEAN_MOTION,ECCENTRICITY,INCLINATION,RA_OF_ASC_NODE,ARG_OF_PERICENTER,MEAN_ANOMALY,BSTAR,MEAN_MOTION_DOT,MEAN_MOTION_DDOT,TLE_LINE0,TLE_LINE1,TLE_LINE2,SEMIMAJOR_AXIS,PERIOD,APOGEE,PERIGEE,DECAYED
53797.0,STARLINK-4723,PAYLOAD,2024-06-18 10:01:42,15.08839675,0.000128,53.216,218.5978,90.6386,269.4753,1.2505e-05,-8.9e-07,0.0,0 STARLINK-4723,1 53797U 22111AA  24170.41784927 -.00000089  00000-0  12505-4 0  9999,2 53797  53.2160 218.5978 0001280  90.6386 269.4753 15.08839675 98682,6917.881,95.438,540.632,538.861,0.0
53797.0,STARLINK-4723,PAYLOAD,2024-06-19 13:03:15,15.08835673,0.0001267,53.2159,213.5429,89.7578,270.3559,-1.0245e-05,-4.51e-06,0.0,0 STARLINK-4723,1 53797U 22111AA  24171.54393484 -.00000451  00000-0 -10245-4 0  9991,2 53797  53.2159 213.5429 0001267  89.7578 270.3559 15.08835673 98064,6917.894,95.438,540.635,538.882,0.0
53797.0,STARLINK-4723,PAYLOAD,2024-06-20 12:54:03,15.08833997,0.0001232,53.2164,209.0825,88.1098,272.0035,-8.4002e-06,-4.22e-06,0.0,0 STARLINK-4723,1 53797U 22111AA  24172.53753760 -.00000422  00000-0 -84002-5 0  9999,2 53797  53.2164 209.0825 0001232  88.1098 272.0035 15.08833997 99002,6917.899,95.438,540.616,538.911,0.0
53797.0,STARLINK-4723,PAYLOAD,2024-06-20 19:15:35,15.08834153,0.0001223,53.2163,207.893,87.4069,272.7063,5.1279e-07,-2.8e-06,0.0,0 STARLINK-4723,1 53797U 22111AA  24172.80249799 -.00000280  00000-0  51279-6 0  9993,2 53797  53.2163 207.8930 0001223  87.4069 272.7063 15.08834153 98253,6917.898,95.438,540.609,538.917,0.0
53797.0,STARLINK-4723,PAYLOAD,2024-06-21 11:09:27,15.08837439,0.0001175,53.2161,204.9189,86.3486,273.7641,3.7468e-05,3.08e-06,0.0,0 STARLINK-4723,1 53797U 22111AA  24173.46489642  .00000308  00000-0  37468-4 0  9991,2 53797  53.2161 204.9189 0001175  86.3486 273.7641 15.08837439 99144,6917.888,95.438,540.566,538.94,0.0
53797.0,STARLINK-4723,PAYLOAD,2024-06-22 09:24:51,15.08836786,0.0001195,53.2162,200.7559,87.9179,272.195,5.5948e-05,6.03e-06,0.0,0 STARLINK-4723,1 53797U 22111AA  24174.39225718  .00000603  00000-0  55948-4 0  9997,2 53797  53.2162 200.7559 0001195  87.9179 272.1950 15.08836786 98495,6917.89,95.438,540.582,538.929,0.0
53797.0,STARLINK-4723,PAYLOAD,2024-06-23 09:15:38,15.08838655,0.0001298,53.2163,196.2953,84.5446,275.5694,2.7666e-05,1.52e-06,0.0,0 STARLINK-4723,1 53797U 22111AA  24175.38585848  .00000152  00000-0  27666-4 0  9995,2 53797  53.2163 196.2953 0001298  84.5446 275.5694 15.08838655 99431,6917.885,95.438,540.647,538.852,0.0
53797.0,STARLINK-4723,PAYLOAD,2024-06-24 01:09:29,15.08841406,0.0001309,53.2164,193.3215,83.5349,276.5792,3.9751e-05,3.45e-06,0.0,0 STARLINK-4723,1 53797U 22111AA  24176.04825584  .00000345  00000-0  39751-4 0  9995,2 53797  53.2164 193.3215 0001309  83.5349 276.5792 15.08841406 98746,6917.876,95.437,540.647,538.836,0.0
53797.0,STARLINK-4723,PAYLOAD,2024-06-24 07:31:01,15.08840424,0.0001263,53.2163,192.1318,87.8397,272.274,2.8712e-05,1.69e-06,0.0,0 STARLINK-4723,1 53797U 22111AA  24176.31321622  .00000169  00000-0  28712-4 0  9998,2 53797  53.2163 192.1318 0001263  87.8397 272.2740 15.08840424 99572,6917.879,95.438,540.618,538.87,0.0
53797.0,STARLINK-4723,PAYLOAD,2024-06-25 04:11:02,15.08838903,0.0001261,53.2164,188.266,87.1929,272.9207,2.4986e-06,-2.48e-06,0.0,0 STARLINK-4723,1 53797U 22111AA  24177.17433797 -.00000248  00000-0  24986-5 0  9999,2 53797  53.2164 188.2660 0001261  87.1929 272.9207 15.08838903 98912,6917.884,95.438,540.621,538.876,0.0
53797.0,STARLINK-4723,PAYLOAD,2024-06-25 07:21:49,15.08839295,0.000127,53.2162,187.6712,87.1831,272.9307,7.4713e-06,-1.69e-06,0.0,0 STARLINK-4723,1 53797U 22111AA  24177.30681755 -.00000169  00000-0  74713-5 0  9998,2 53797  53.2162 187.6712 0001270  87.1831 272.9307 15.08839295 99729,6917.883,95.438,540.626,538.869,0.0
53797.0,STARLINK-4723,PAYLOAD,2024-06-26 07:12:36,15.08835977,0.000129,53.2159,183.2118,93.8342,266.2797,8.6515e-07,-2.74e-06,0.0,0 STARLINK-4723,1 53797U 22111AA  24178.30042021 -.00000274  00000-0  86515-6 0  9997,2 53797  53.2159 183.2118 0001290  93.8342 266.2797 15.08835977 99081,6917.893,95.438,540.65,538.865,0.0
53797.0,STARLINK-4723,PAYLOAD,2024-06-27 16:35:42,15.08834365,0.0001234,53.215,176.9656,80.7257,279.3874,7.5061e-06,-1.68e-06,0.0,0 STARLINK-4723,1 53797U 22111AA  24179.69146445 -.00000168  00000-0  75061-5 0  9990,2 53797  53.2150 176.9656 0001234  80.7257 279.3874 15.08834365 99290,6917.898,95.438,540.616,538.909,0.0
53797.0,STARLINK-4723,PAYLOAD,2024-06-28 06:54:10,15.08837631,0.0001193,53.2148,174.2891,80.9917,279.121,4.0541e-05,3.57e-06,0.0,0 STARLINK-4723,1 53797U 22111AA  24180.28762279  .00000357  00000-0  40541-4 0  9999,2 53797  53.2148 174.2891 0001193  80.9917 279.1210 15.08837631100179,6917.888,95.438,540.578,538.927,0.0
53797.0,STARLINK-4723,PAYLOAD,2024-06-29 05:09:34,15.08837433,0.0001181,53.2147,170.1256,79.3984,280.7141,2.9885e-05,1.88e-06,0.0,0 STARLINK-4723,1 53797U 22111AA  24181.21498495  .00000188  00000-0  29885-4 0  9999,2 53797  53.2147 170.1256 0001181  79.3984 280.7141 15.08837433 99528,6917.888,95.438,540.57,538.936,0.0
53797.0,STARLINK-4723,PAYLOAD,2024-06-29 08:20:21,15.08835615,0.00012,53.2147,169.5314,83.2745,276.8384,1.7918e-05,-3e-08,0.0,0 STARLINK-4723,1 53797U 22111AA  24181.34746670 -.00000003  00000-0  17918-4 0  9995,2 53797  53.2147 169.5314 0001200  83.2745 276.8384 15.08835615100333,6917.894,95.438,540.589,538.929,0.0
53797.0,STARLINK-4723,PAYLOAD,2024-06-29 16:17:17,15.08832805,0.0001188,53.2147,168.0447,86.2178,273.895,7.9925e-06,-1.61e-06,0.0,0 STARLINK-4723,1 53797U 22111AA  24181.67866983 -.00000161  00000-0  79925-5 0  9993,2 53797  53.2147 168.0447 0001188  86.2178 273.8950 15.08832805100381,6917.902,95.438,540.589,538.946,0.0
53797.0,STARLINK-4723,PAYLOAD,2024-06-30 06:35:44,15.08841424,0.0001242,53.215,165.368,86.4557,273.6577,4.466e-05,4.23e-06,0.0,0 STARLINK-4723,1 53797U 22111AA  24182.27482450  .00000423  00000-0  44660-4 0  9990,2 53797  53.2150 165.3680 0001242  86.4557 273.6577 15.08841424 99688,6917.876,95.437,540.6,538.882,0.0
53797.0,STARLINK-4723,PAYLOAD,2024-06-30 16:08:03,15.08846252,0.000128,53.2154,163.5848,86.8384,273.2755,7.5877e-05,9.2e-06,0.0,0 STARLINK-4723,1 53797U 22111AA  24182.67225970  .00000920  00000-0  75877-4 0  9992,2 53797  53.2154 163.5848 0001280  86.8384 273.2755 15.08846252100537,6917.861,95.437,540.612,538.841,0.0
53797.0,STARLINK-4723,PAYLOAD,2024-07-01 04:51:08,15.08836546,0.0001356,53.2155,161.2066,86.964,273.1507,5.6712e-05,6.15e-06,0.0,0 STARLINK-4723,1 53797U 22111AA  24183.20218616  .00000615  00000-0  56712-4 0  9999,2 53797  53.2155 161.2066 0001356  86.9640 273.1507 15.08836546100613,6917.891,95.438,540.694,538.818,0.0
53797.0,STARLINK-4723,PAYLOAD,2024-07-01 15:58:50,15.08835759,0.0001349,53.2155,159.1249,86.6244,273.4902,4.5111e-05,4.3e-06,0.0,0 STARLINK-4723,1 53797U 22111AA  24183.66586767  .00000430  00000-0  45111-4 0  9990,2 53797  53.2155 159.1249 0001349  86.6244 273.4902 15.08835759 99895,6917.893,95.438,540.692,538.825,0.0
53797.0,STARLINK-4723,PAYLOAD,2024-07-02 04:41:55,15.08843016,0.0001309,53.2163,156.7451,90.4051,269.7091,-6.5706e-06,-3.92e-06,0.0,0 STARLINK-4723,1 53797U 22111AA  24184.19578519 -.00000392  00000-0 -65706-5 0  9997,2 53797  53.2163 156.7451 0001309  90.4051 269.7091 15.08843016100768,6917.871,95.437,540.642,538.831,0.0
53797.0,STARLINK-4723,PAYLOAD,2024-07-02 15:49:37,15.08843548,0.0001308,53.2163,154.6639,89.0911,271.0231,-8.8769e-07,-3.02e-06,0.0,0 STARLINK-4723,1 53797U 22111AA  24184.65946340 -.00000302  00000-0 -88769-6 0  9995,2 53797  53.2163 154.6639 0001308  89.0911 271.0231 15.08843548100044,6917.87,95.437,540.639,538.83,0.0
53797.0,STARLINK-4723,PAYLOAD,2024-07-02 22:11:10,15.08838947,0.0001304,53.2158,153.4754,85.8044,274.3097,2.1254e-05,5e-07,0.0,0 STARLINK-4723,1 53797U 22111AA  24184.92442522  .00000050  00000-0  21254-4 0  9990,2 53797  53.2158 153.4754 0001304  85.8044 274.3097 15.08838947100874,6917.884,95.438,540.651,538.847,0.0
53797.0,STARLINK-4723,PAYLOAD,2024-07-03 04:32:43,15.08833915,0.0001252,53.2167,152.2857,86.3917,273.7219,-9.1813e-06,-4.34e-06,0.0,0 STARLINK-4723,1 53797U 22111AA  24185.18938949 -.00000434  00000-0 -91813-5 0  9999,2 53797  53.2167 152.2857 0001252  86.3917 273.7219 15.08833915100129,6917.899,95.438,540.63,538.898,0.0
53797.0,STARLINK-4723,PAYLOAD,2024-07-03 07:43:29,15.08834191,0.0001257,53.2168,151.6909,86.5073,273.6063,-7.0927e-06,-4.01e-06,0.0,0 STARLINK-4723,1 53797U 22111AA  24185.32186956 -.00000401  00000-0 -70927-5 0  9995,2 53797  53.2168 151.6909 0001257  86.5073 273.6063 15.08834191100933,6917.898,95.438,540.633,538.894,0.0
53797.0,STARLINK-4723,PAYLOAD,2024-07-04 07:34:16,15.08836039,0.0001269,53.2174,147.2303,88.9108,271.2029,1.2376e-06,-2.68e-06,0.0,0 STARLINK-4723,1 53797U 22111AA  24186.31546944 -.00000268  00000-0  12376-5 0  9996,2 53797  53.2174 147.2303 0001269  88.9108 271.2029 15.08836039100295,6917.892,95.438,540.635,538.88,0.0
53797.0,STARLINK-4723,PAYLOAD,2024-07-04 13:55:49,15.0883588,0.0001267,53.2175,146.0408,88.553,271.5608,-1.0498e-05,-4.55e-06,0.0,0 STARLINK-4723,1 53797U 22111AA  24186.58043037 -.00000455  00000-0 -10498-4 0  9991,2 53797  53.2175 146.0408 0001267  88.5530 271.5608 15.08835880101124,6917.893,95.438,540.634,538.881,0.0
53797.0,STARLINK-4723,PAYLOAD,2024-07-05 13:46:36,15.08834043,0.0001128,53.2162,141.58,86.3392,273.7729,1.8993e-05,1.4e-07,0.0,0 STARLINK-4723,1 53797U 22111AA  24187.57403252  .00000014  00000-0  18993-4 0  9997,2 53797  53.2162 141.5800 0001128  86.3392 273.7729 15.08834043101278,6917.899,95.438,540.544,538.983,0.0
53797.0,STARLINK-4723,PAYLOAD,2024-07-06 13:37:23,15.08835504,0.0001165,53.2164,137.1189,82.3586,277.7539,2.4092e-05,9.6e-07,0.0,0 STARLINK-4723,1 53797U 22111AA  24188.56763374  .00000096  00000-0  24092-4 0  9998,2 53797  53.2164 137.1189 0001165  82.3586 277.7539 15.08835504101426,6917.894,95.438,540.565,538.953,0.0
